{
  "links" : {
    "next" : "https://api.nasa.gov/neo/rest/v1/feed?start_date=2000-05-23&end_date=2000-05-23&detailed=true&api_key=t0TVs3DtDT2H8Oy2Zy8m2eVrNsAVKAexjcZXUckd",
    "prev" : "https://api.nasa.gov/neo/rest/v1/feed?start_date=2000-05-21&end_date=2000-05-21&detailed=true&api_key=t0TVs3DtDT2H8Oy2Zy8m2eVrNsAVKAexjcZXUckd",
    "self" : "https://api.nasa.gov/neo/rest/v1/feed?start_date=2000-05-22&end_date=2000-05-22&detailed=true&api_key=t0TVs3DtDT2H8Oy2Zy8m2eVrNsAVKAexjcZXUckd"
  },
  "element_count" : 8,
  "near_earth_objects" : {
    "2000-05-22" : [ {
      "links" : {
        "self" : "https://api.nasa.gov/neo/rest/v1/neo/2162385?api_key=t0TVs3DtDT2H8Oy2Zy8m2eVrNsAVKAexjcZXUckd"
      },
      "neo_reference_id" : "2162385",
      "name" : "162385 (2000 BM19)",
      "nasa_jpl_url" : "http://ssd.jpl.nasa.gov/sbdb.cgi?sstr=2162385",
      "absolute_magnitude_h" : 18.4,
      "estimated_diameter" : {
        "kilometers" : {
          "estimated_diameter_min" : 0.5553349116,
          "estimated_diameter_max" : 1.2417666126
        },
        "meters" : {
          "estimated_diameter_min" : 555.334911581,
          "estimated_diameter_max" : 1241.766612574
        },
        "miles" : {
          "estimated_diameter_min" : 0.3450690093,
          "estimated_diameter_max" : 0.7715977618
        },
        "feet" : {
          "estimated_diameter_min" : 1821.9649913114,
          "estimated_diameter_max" : 4074.0375731972
        }
      },
      "is_potentially_hazardous_asteroid" : false,
      "close_approach_data" : [ {
        "close_approach_date" : "2000-05-22",
        "epoch_date_close_approach" : 958978800000,
        "relative_velocity" : {
          "kilometers_per_second" : "11.2770592417",
          "kilometers_per_hour" : "40597.4132701142",
          "miles_per_hour" : "25225.6538177552"
        },
        "miss_distance" : {
          "astronomical" : "0.4154387309",
          "lunar" : "161.6056671143",
          "kilometers" : "62148752",
          "miles" : "38617444"
        },
        "orbiting_body" : "Earth"
      } ],
      "orbital_data" : {
        "orbit_id" : "45",
        "orbit_determination_date" : "2017-04-06 09:26:32",
        "orbit_uncertainty" : "0",
        "minimum_orbit_intersection" : ".0825817",
        "jupiter_tisserand_invariant" : "7.726",
        "epoch_osculation" : "2458000.5",
        "eccentricity" : ".3586132343374367",
        "semi_major_axis" : ".7405485360126517",
        "inclination" : "6.888517683523446",
        "ascending_node_longitude" : "70.34308158363289",
        "orbital_period" : "232.7709175141198",
        "perihelion_distance" : ".4749780303293009",
        "perihelion_argument" : "247.5894951723102",
        "aphelion_distance" : "1.006119041696002",
        "perihelion_time" : "2458009.419028495842",
        "mean_anomaly" : "346.205964676372",
        "mean_motion" : "1.546584959343826",
        "equinox" : "J2000"
      }
    }, {
      "links" : {
        "self" : "https://api.nasa.gov/neo/rest/v1/neo/2380818?api_key=t0TVs3DtDT2H8Oy2Zy8m2eVrNsAVKAexjcZXUckd"
      },
      "neo_reference_id" : "2380818",
      "name" : "380818 (2005 YV128)",
      "nasa_jpl_url" : "http://ssd.jpl.nasa.gov/sbdb.cgi?sstr=2380818",
      "absolute_magnitude_h" : 20.6,
      "estimated_diameter" : {
        "kilometers" : {
          "estimated_diameter_min" : 0.2016299194,
          "estimated_diameter_max" : 0.4508582062
        },
        "meters" : {
          "estimated_diameter_min" : 201.6299194428,
          "estimated_diameter_max" : 450.8582061718
        },
        "miles" : {
          "estimated_diameter_min" : 0.1252869847,
          "estimated_diameter_max" : 0.2801502144
        },
        "feet" : {
          "estimated_diameter_min" : 661.5155049046,
          "estimated_diameter_max" : 1479.1936371367
        }
      },
      "is_potentially_hazardous_asteroid" : false,
      "close_approach_data" : [ {
        "close_approach_date" : "2000-05-22",
        "epoch_date_close_approach" : 958978800000,
        "relative_velocity" : {
          "kilometers_per_second" : "12.9776762225",
          "kilometers_per_hour" : "46719.6344011206",
          "miles_per_hour" : "29029.7639421852"
        },
        "miss_distance" : {
          "astronomical" : "0.4382767055",
          "lunar" : "170.4896392822",
          "kilometers" : "65565264",
          "miles" : "40740364"
        },
        "orbiting_body" : "Earth"
      } ],
      "orbital_data" : {
        "orbit_id" : "47",
        "orbit_determination_date" : "2017-04-06 09:22:16",
        "orbit_uncertainty" : "0",
        "minimum_orbit_intersection" : ".15467",
        "jupiter_tisserand_invariant" : "6.339",
        "epoch_osculation" : "2458000.5",
        "eccentricity" : ".5123071881778112",
        "semi_major_axis" : ".9230151479271127",
        "inclination" : "14.13913548317718",
        "ascending_node_longitude" : "127.738105425979",
        "orbital_period" : "323.9005381199465",
        "perihelion_distance" : ".4501478528470472",
        "perihelion_argument" : "191.7910413062148",
        "aphelion_distance" : "1.395882443007178",
        "perihelion_time" : "2457874.006490418138",
        "mean_anomaly" : "140.5915029156479",
        "mean_motion" : "1.11145230597513",
        "equinox" : "J2000"
      }
    }, {
      "links" : {
        "self" : "https://api.nasa.gov/neo/rest/v1/neo/3255464?api_key=t0TVs3DtDT2H8Oy2Zy8m2eVrNsAVKAexjcZXUckd"
      },
      "neo_reference_id" : "3255464",
      "name" : "(2004 SB56)",
      "nasa_jpl_url" : "http://ssd.jpl.nasa.gov/sbdb.cgi?sstr=3255464",
      "absolute_magnitude_h" : 19.2,
      "estimated_diameter" : {
        "kilometers" : {
          "estimated_diameter_min" : 0.3841978911,
          "estimated_diameter_max" : 0.8590926012
        },
        "meters" : {
          "estimated_diameter_min" : 384.1978910643,
          "estimated_diameter_max" : 859.0926012318
        },
        "miles" : {
          "estimated_diameter_min" : 0.2387294278,
          "estimated_diameter_max" : 0.5338152287
        },
        "feet" : {
          "estimated_diameter_min" : 1260.4918089193,
          "estimated_diameter_max" : 2818.5453698252
        }
      },
      "is_potentially_hazardous_asteroid" : false,
      "close_approach_data" : [ {
        "close_approach_date" : "2000-05-22",
        "epoch_date_close_approach" : 958978800000,
        "relative_velocity" : {
          "kilometers_per_second" : "7.8255642795",
          "kilometers_per_hour" : "28172.0314060437",
          "miles_per_hour" : "17505.0047367164"
        },
        "miss_distance" : {
          "astronomical" : "0.3857071539",
          "lunar" : "150.0400848389",
          "kilometers" : "57700968",
          "miles" : "35853720"
        },
        "orbiting_body" : "Earth"
      } ],
      "orbital_data" : {
        "orbit_id" : "44",
        "orbit_determination_date" : "2016-10-12 06:15:27",
        "orbit_uncertainty" : "0",
        "minimum_orbit_intersection" : ".0531025",
        "jupiter_tisserand_invariant" : "6.759",
        "epoch_osculation" : "2457600.5",
        "eccentricity" : ".2379076856654274",
        "semi_major_axis" : ".8660348767813092",
        "inclination" : "18.69322621886014",
        "ascending_node_longitude" : "302.073173563842",
        "orbital_period" : "294.3753902099971",
        "perihelion_distance" : ".6599985235407243",
        "perihelion_argument" : "233.5035827569634",
        "aphelion_distance" : "1.072071230021894",
        "perihelion_time" : "2457529.116968401744",
        "mean_anomaly" : "87.29633056975361",
        "mean_motion" : "1.222928315248053",
        "equinox" : "J2000"
      }
    } ]
  }
}